[
    {
        "Altitude(m)": 624790.8259483557,
        "Argument of Periapsis(deg)": 0.0,
        "Eccentricity": 0.0,
        "Inclination(deg)": 60.0,
        "Latitude(deg)": -59.14720922810841,
        "Longitude(deg)": -133.96551664287747,
        "Mean Anomaly(deg)": 278.1818,
        "RAAN(deg)": 40.0,
        "Satellite Name": "Test1 193",
        "Satellite Number": 193,
        "Semi-Major Axis(m)": 6980739.136638005,
        "Time(s)": 0
    },
    {
        "Altitude(m)": 624737.4815745972,
        "Argument of Periapsis(deg)": 0.00010418945913296404,
        "Eccentricity": 0.0,
        "Inclination(deg)": 60.0,
        "Latitude(deg)": -58.994665792480006,
        "Longitude(deg)": -132.84601081173264,
        "Mean Anomaly(deg)": 278.8019061454618,
        "RAAN(deg)": 39.99957995086026,
        "Satellite Name": "Test1 193",
        "Satellite Number": 193,
        "Semi-Major Axis(m)": 6980739.136638005,
        "Time(s)": 10
    }
]